STARLINK-35449          
1 66459U 25262D   25334.83336806 -.02028767  00000+0 -17309-1 0  9995
2 66459  42.9992 141.1850 0001339 273.8351 320.3967 15.71709056  3725
STARLINK-35424          
1 66460U 25262E   25334.83336806 -.02007907  00000+0 -17115-1 0  9995
2 66460  42.9992 141.1808 0001413 271.5769 324.5717 15.71697462  3727
STARLINK-35132          
1 66461U 25262F   25334.83336806 -.02020003  00000+0 -17227-1 0  9992
2 66461  42.9991 141.1760 0001365 269.2484 328.8177 15.71704584  3729
STARLINK-35499          
1 66462U 25262G   25334.83336806 -.02017863  00000+0 -17207-1 0  9991
2 66462  42.9991 141.1706 0001436 267.5053 332.4784 15.71703123  3725
STARLINK-35463          
1 66463U 25262H   25334.83336806 -.02013326  00000+0 -17167-1 0  9997
2 66463  42.9992 141.1606 0001303 275.8376 327.9801 15.71699323  3724
STARLINK-35435          
1 66464U 25262J   25334.83336806 -.02017922  00000+0 -17208-1 0  9990
2 66464  42.9990 141.1662 0001393 270.6260 331.2744 15.71703129  3723
STARLINK-35448          
1 66465U 25262K   25334.83336806 -.02034012  00000+0 -17357-1 0  9995
2 66465  42.9992 141.1510 0001381 272.5039 335.1478 15.71711868  3726
STARLINK-35388          
1 66466U 25262L   25334.83336806 -.02020586  00000+0 -17232-1 0  9999
2 66466  42.9990 141.1458 0001353 273.9837 335.5843 15.71704978  3720
STARLINK-35682          
1 66467U 25262M   25334.83336806 -.02035054  00000+0 -17365-1 0  9993
2 66467  42.9992 141.1560 0001426 274.1954 331.5337 15.71715372  3725
STARLINK-35331          
1 66468U 25262N   25334.83336806 -.02029203  00000+0 -17312-1 0  9995
2 66468  42.9992 141.1414 0001493 273.6928 337.7928 15.71708401  3722
STARLINK-35451          
1 66469U 25262P   25334.83336806 -.02017023  00000+0 -17199-1 0  9996
2 66469  42.9992 141.1265 0001406 274.0715 343.1659 15.71702333  3720
STARLINK-35655          
1 66470U 25262Q   25334.83336806 -.02033223  00000+0 -17351-1 0  9998
2 66470  42.9991 141.1366 0001378 269.4375 343.9669 15.71710695  3720
